ORBCOMM FM24 [-]        
1 25478U 98053D   23319.75041283  .00001308  00000+0  50530-3 0  9996
2 25478  45.0074 129.0084 0001668 186.2239 173.8588 14.34893639314136
ORBCOMM FM25 [-]        
1 25479U 98053E   23319.78427789  .00001320  00000+0  50945-3 0  9993
2 25479  45.0065 127.0835 0003927 216.3259 143.7322 14.34877821314436
ORBCOMM FM26 [-]        
1 25480U 98053F   23319.72938126  .00001179  00000+0  46438-3 0  9995
2 25480  45.0058 120.7929 0005784 241.0627 118.9640 14.34431283314379
ORBCOMM FM27 [+]        
1 25481U 98053G   23319.90885511  .00001251  00000+0  48582-3 0  9998
2 25481  45.0049 126.7536 0000584 121.9144 238.1760 14.34850851314388
ORBCOMM FM28 [-]        
1 25482U 98053H   23319.39558365  .00001363  00000+0  51973-3 0  9998
2 25482  45.0065  68.2679 0004743 257.4352 102.5965 14.35341116314978
ORBCOMM FM30 [-]        
1 25980U 99065A   23319.70829192  .00001341  00000+0  52020-3 0  9999
2 25980  45.0332 306.2512 0007308 335.3236  24.7261 14.34566010251162
ORBCOMM FM31 [-]        
1 25981U 99065B   23319.67532978  .00001116  00000+0  44114-3 0  9994
2 25981  45.0244 300.2405 0004068 344.3222  15.7499 14.34588635250715
ORBCOMM FM32 [+]        
1 25982U 99065C   23319.66830110  .00001190  00000+0  47667-3 0  9991
2 25982  45.0174 312.7807 0005946 354.0162   6.0613 14.33532553251369
