<?xml version="1.0" encoding="UTF-8"?>
<ndm xmlns:xsi="http://www.w3.org/2001/XMLSchema-instance" xsi:noNamespaceSchemaLocation="https://sanaregistry.org/r/ndmxml_unqualified/ndmxml-2.0.0-master-2.0.xsd">
<omm id="CCSDS_OMM_VERS" version="2.0">
<header><CREATION_DATE/><ORIGINATOR/></header><body><segment><metadata><OBJECT_NAME>ORBCOMM FM24 [-]</OBJECT_NAME><OBJECT_ID>1998-053D</OBJECT_ID><CENTER_NAME>EARTH</CENTER_NAME><REF_FRAME>TEME</REF_FRAME><TIME_SYSTEM>UTC</TIME_SYSTEM><MEAN_ELEMENT_THEORY>SGP4</MEAN_ELEMENT_THEORY></metadata><data><meanElements><EPOCH>2023-11-15T18:00:35.668512</EPOCH><MEAN_MOTION>14.34893639</MEAN_MOTION><ECCENTRICITY>.0001668</ECCENTRICITY><INCLINATION>45.0074</INCLINATION><RA_OF_ASC_NODE>129.0084</RA_OF_ASC_NODE><ARG_OF_PERICENTER>186.2239</ARG_OF_PERICENTER><MEAN_ANOMALY>173.8588</MEAN_ANOMALY></meanElements><tleParameters><EPHEMERIS_TYPE>0</EPHEMERIS_TYPE><CLASSIFICATION_TYPE>U</CLASSIFICATION_TYPE><NORAD_CAT_ID>25478</NORAD_CAT_ID><ELEMENT_SET_NO>999</ELEMENT_SET_NO><REV_AT_EPOCH>31413</REV_AT_EPOCH><BSTAR>.5053E-3</BSTAR><MEAN_MOTION_DOT>.1308E-4</MEAN_MOTION_DOT><MEAN_MOTION_DDOT>0</MEAN_MOTION_DDOT></tleParameters></data></segment></body></omm>
<omm id="CCSDS_OMM_VERS" version="2.0">
<header><CREATION_DATE/><ORIGINATOR/></header><body><segment><metadata><OBJECT_NAME>ORBCOMM FM25 [-]</OBJECT_NAME><OBJECT_ID>1998-053E</OBJECT_ID><CENTER_NAME>EARTH</CENTER_NAME><REF_FRAME>TEME</REF_FRAME><TIME_SYSTEM>UTC</TIME_SYSTEM><MEAN_ELEMENT_THEORY>SGP4</MEAN_ELEMENT_THEORY></metadata><data><meanElements><EPOCH>2023-11-15T18:49:21.609696</EPOCH><MEAN_MOTION>14.34877821</MEAN_MOTION><ECCENTRICITY>.0003927</ECCENTRICITY><INCLINATION>45.0065</INCLINATION><RA_OF_ASC_NODE>127.0835</RA_OF_ASC_NODE><ARG_OF_PERICENTER>216.3259</ARG_OF_PERICENTER><MEAN_ANOMALY>143.7322</MEAN_ANOMALY></meanElements><tleParameters><EPHEMERIS_TYPE>0</EPHEMERIS_TYPE><CLASSIFICATION_TYPE>U</CLASSIFICATION_TYPE><NORAD_CAT_ID>25479</NORAD_CAT_ID><ELEMENT_SET_NO>999</ELEMENT_SET_NO><REV_AT_EPOCH>31443</REV_AT_EPOCH><BSTAR>.50945E-3</BSTAR><MEAN_MOTION_DOT>.132E-4</MEAN_MOTION_DOT><MEAN_MOTION_DDOT>0</MEAN_MOTION_DDOT></tleParameters></data></segment></body></omm>
<omm id="CCSDS_OMM_VERS" version="2.0">
<header><CREATION_DATE/><ORIGINATOR/></header><body><segment><metadata><OBJECT_NAME>ORBCOMM FM26 [-]</OBJECT_NAME><OBJECT_ID>1998-053F</OBJECT_ID><CENTER_NAME>EARTH</CENTER_NAME><REF_FRAME>TEME</REF_FRAME><TIME_SYSTEM>UTC</TIME_SYSTEM><MEAN_ELEMENT_THEORY>SGP4</MEAN_ELEMENT_THEORY></metadata><data><meanElements><EPOCH>2023-11-15T17:30:18.540864</EPOCH><MEAN_MOTION>14.34431283</MEAN_MOTION><ECCENTRICITY>.0005784</ECCENTRICITY><INCLINATION>45.0058</INCLINATION><RA_OF_ASC_NODE>120.7929</RA_OF_ASC_NODE><ARG_OF_PERICENTER>241.0627</ARG_OF_PERICENTER><MEAN_ANOMALY>118.9640</MEAN_ANOMALY></meanElements><tleParameters><EPHEMERIS_TYPE>0</EPHEMERIS_TYPE><CLASSIFICATION_TYPE>U</CLASSIFICATION_TYPE><NORAD_CAT_ID>25480</NORAD_CAT_ID><ELEMENT_SET_NO>999</ELEMENT_SET_NO><REV_AT_EPOCH>31437</REV_AT_EPOCH><BSTAR>.46438E-3</BSTAR><MEAN_MOTION_DOT>.1179E-4</MEAN_MOTION_DOT><MEAN_MOTION_DDOT>0</MEAN_MOTION_DDOT></tleParameters></data></segment></body></omm>
<omm id="CCSDS_OMM_VERS" version="2.0">
<header><CREATION_DATE/><ORIGINATOR/></header><body><segment><metadata><OBJECT_NAME>ORBCOMM FM27 [+]</OBJECT_NAME><OBJECT_ID>1998-053G</OBJECT_ID><CENTER_NAME>EARTH</CENTER_NAME><REF_FRAME>TEME</REF_FRAME><TIME_SYSTEM>UTC</TIME_SYSTEM><MEAN_ELEMENT_THEORY>SGP4</MEAN_ELEMENT_THEORY></metadata><data><meanElements><EPOCH>2023-11-15T21:48:45.081504</EPOCH><MEAN_MOTION>14.34850851</MEAN_MOTION><ECCENTRICITY>.0000584</ECCENTRICITY><INCLINATION>45.0049</INCLINATION><RA_OF_ASC_NODE>126.7536</RA_OF_ASC_NODE><ARG_OF_PERICENTER>121.9144</ARG_OF_PERICENTER><MEAN_ANOMALY>238.1760</MEAN_ANOMALY></meanElements><tleParameters><EPHEMERIS_TYPE>0</EPHEMERIS_TYPE><CLASSIFICATION_TYPE>U</CLASSIFICATION_TYPE><NORAD_CAT_ID>25481</NORAD_CAT_ID><ELEMENT_SET_NO>999</ELEMENT_SET_NO><REV_AT_EPOCH>31438</REV_AT_EPOCH><BSTAR>.48582E-3</BSTAR><MEAN_MOTION_DOT>.1251E-4</MEAN_MOTION_DOT><MEAN_MOTION_DDOT>0</MEAN_MOTION_DDOT></tleParameters></data></segment></body></omm>
<omm id="CCSDS_OMM_VERS" version="2.0">
<header><CREATION_DATE/><ORIGINATOR/></header><body><segment><metadata><OBJECT_NAME>ORBCOMM FM28 [-]</OBJECT_NAME><OBJECT_ID>1998-053H</OBJECT_ID><CENTER_NAME>EARTH</CENTER_NAME><REF_FRAME>TEME</REF_FRAME><TIME_SYSTEM>UTC</TIME_SYSTEM><MEAN_ELEMENT_THEORY>SGP4</MEAN_ELEMENT_THEORY></metadata><data><meanElements><EPOCH>2023-11-15T09:29:38.427360</EPOCH><MEAN_MOTION>14.35341116</MEAN_MOTION><ECCENTRICITY>.0004743</ECCENTRICITY><INCLINATION>45.0065</INCLINATION><RA_OF_ASC_NODE>68.2679</RA_OF_ASC_NODE><ARG_OF_PERICENTER>257.4352</ARG_OF_PERICENTER><MEAN_ANOMALY>102.5965</MEAN_ANOMALY></meanElements><tleParameters><EPHEMERIS_TYPE>0</EPHEMERIS_TYPE><CLASSIFICATION_TYPE>U</CLASSIFICATION_TYPE><NORAD_CAT_ID>25482</NORAD_CAT_ID><ELEMENT_SET_NO>999</ELEMENT_SET_NO><REV_AT_EPOCH>31497</REV_AT_EPOCH><BSTAR>.51973E-3</BSTAR><MEAN_MOTION_DOT>.1363E-4</MEAN_MOTION_DOT><MEAN_MOTION_DDOT>0</MEAN_MOTION_DDOT></tleParameters></data></segment></body></omm>
<omm id="CCSDS_OMM_VERS" version="2.0">
<header><CREATION_DATE/><ORIGINATOR/></header><body><segment><metadata><OBJECT_NAME>ORBCOMM FM30 [-]</OBJECT_NAME><OBJECT_ID>1999-065A</OBJECT_ID><CENTER_NAME>EARTH</CENTER_NAME><REF_FRAME>TEME</REF_FRAME><TIME_SYSTEM>UTC</TIME_SYSTEM><MEAN_ELEMENT_THEORY>SGP4</MEAN_ELEMENT_THEORY></metadata><data><meanElements><EPOCH>2023-11-15T16:59:56.421888</EPOCH><MEAN_MOTION>14.34566010</MEAN_MOTION><ECCENTRICITY>.0007308</ECCENTRICITY><INCLINATION>45.0332</INCLINATION><RA_OF_ASC_NODE>306.2512</RA_OF_ASC_NODE><ARG_OF_PERICENTER>335.3236</ARG_OF_PERICENTER><MEAN_ANOMALY>24.7261</MEAN_ANOMALY></meanElements><tleParameters><EPHEMERIS_TYPE>0</EPHEMERIS_TYPE><CLASSIFICATION_TYPE>U</CLASSIFICATION_TYPE><NORAD_CAT_ID>25980</NORAD_CAT_ID><ELEMENT_SET_NO>999</ELEMENT_SET_NO><REV_AT_EPOCH>25116</REV_AT_EPOCH><BSTAR>.5202E-3</BSTAR><MEAN_MOTION_DOT>.1341E-4</MEAN_MOTION_DOT><MEAN_MOTION_DDOT>0</MEAN_MOTION_DDOT></tleParameters></data></segment></body></omm>
<omm id="CCSDS_OMM_VERS" version="2.0">
<header><CREATION_DATE/><ORIGINATOR/></header><body><segment><metadata><OBJECT_NAME>ORBCOMM FM31 [-]</OBJECT_NAME><OBJECT_ID>1999-065B</OBJECT_ID><CENTER_NAME>EARTH</CENTER_NAME><REF_FRAME>TEME</REF_FRAME><TIME_SYSTEM>UTC</TIME_SYSTEM><MEAN_ELEMENT_THEORY>SGP4</MEAN_ELEMENT_THEORY></metadata><data><meanElements><EPOCH>2023-11-15T16:12:28.492992</EPOCH><MEAN_MOTION>14.34588635</MEAN_MOTION><ECCENTRICITY>.0004068</ECCENTRICITY><INCLINATION>45.0244</INCLINATION><RA_OF_ASC_NODE>300.2405</RA_OF_ASC_NODE><ARG_OF_PERICENTER>344.3222</ARG_OF_PERICENTER><MEAN_ANOMALY>15.7499</MEAN_ANOMALY></meanElements><tleParameters><EPHEMERIS_TYPE>0</EPHEMERIS_TYPE><CLASSIFICATION_TYPE>U</CLASSIFICATION_TYPE><NORAD_CAT_ID>25981</NORAD_CAT_ID><ELEMENT_SET_NO>999</ELEMENT_SET_NO><REV_AT_EPOCH>25071</REV_AT_EPOCH><BSTAR>.44114E-3</BSTAR><MEAN_MOTION_DOT>.1116E-4</MEAN_MOTION_DOT><MEAN_MOTION_DDOT>0</MEAN_MOTION_DDOT></tleParameters></data></segment></body></omm>
<omm id="CCSDS_OMM_VERS" version="2.0">
<header><CREATION_DATE/><ORIGINATOR/></header><body><segment><metadata><OBJECT_NAME>ORBCOMM FM32 [+]</OBJECT_NAME><OBJECT_ID>1999-065C</OBJECT_ID><CENTER_NAME>EARTH</CENTER_NAME><REF_FRAME>TEME</REF_FRAME><TIME_SYSTEM>UTC</TIME_SYSTEM><MEAN_ELEMENT_THEORY>SGP4</MEAN_ELEMENT_THEORY></metadata><data><meanElements><EPOCH>2023-11-15T16:02:21.215040</EPOCH><MEAN_MOTION>14.33532553</MEAN_MOTION><ECCENTRICITY>.0005946</ECCENTRICITY><INCLINATION>45.0174</INCLINATION><RA_OF_ASC_NODE>312.7807</RA_OF_ASC_NODE><ARG_OF_PERICENTER>354.0162</ARG_OF_PERICENTER><MEAN_ANOMALY>6.0613</MEAN_ANOMALY></meanElements><tleParameters><EPHEMERIS_TYPE>0</EPHEMERIS_TYPE><CLASSIFICATION_TYPE>U</CLASSIFICATION_TYPE><NORAD_CAT_ID>25982</NORAD_CAT_ID><ELEMENT_SET_NO>999</ELEMENT_SET_NO><REV_AT_EPOCH>25136</REV_AT_EPOCH><BSTAR>.47667E-3</BSTAR><MEAN_MOTION_DOT>.119E-4</MEAN_MOTION_DOT><MEAN_MOTION_DDOT>0</MEAN_MOTION_DDOT></tleParameters></data></segment></body></omm>

</ndm>
